IRIDIUM 63              
1 25286U 98021B   25344.81632410  .00000577  00000+0  18923-3 0  9990
2 25286  86.3984   8.0217 0002414  89.6726 270.4748 14.36733340449205
IRIDIUM 69              
1 25319U 98026A   25344.49316720  .00000820  00000+0  24816-3 0  9998
2 25319  86.3980  20.8886 0003801 129.0203 231.1336 14.41214359448455
IRIDIUM 71              
1 25320U 98026B   25344.82722324  .00000442  00000+0  13063-3 0  9990
2 25320  86.3979  15.4202 0001743 155.7415 204.3867 14.41316281449034
IRIDIUM 73              
1 25344U 98032C   25344.71139433  .00001107  00000+0  26924-3 0  9993
2 25344  86.4403 331.8511 0002905  95.5944 264.5593 14.51985713456170
IRIDIUM 82              
1 25467U 98051A   25344.51257306  .00055671  00000+0  10429-2 0  9995
2 25467  86.3612  22.2299 0061105 344.0713  15.8620 15.46369983451054
